NORAD_CAT_ID,OBJECT_NAME,OBJECT_TYPE,EPOCH,MEAN_MOTION,ECCENTRICITY,INCLINATION,RA_OF_ASC_NODE,ARG_OF_PERICENTER,MEAN_ANOMALY,BSTAR,MEAN_MOTION_DOT,MEAN_MOTION_DDOT,TLE_LINE0,TLE_LINE1,TLE_LINE2,SEMIMAJOR_AXIS,PERIOD,APOGEE,PERIGEE,DECAYED
52553.0,STARLINK-3858,PAYLOAD,2022-07-06 19:28:55,15.22536873,0.0002162,53.2171,33.3457,38.9099,321.2054,-0.01035,-0.00235835,0.0,0 STARLINK-3858,1 52553U 22051W   22187.81174847 -.00235835  00000-0 -10350-1 0  9998,2 52553  53.2171  33.3457 0002162  38.9099 321.2054 15.22536873  8934,6876.329000000002,94.579,499.68,496.707,0.0
52553.0,STARLINK-3858,PAYLOAD,2022-07-07 06:00:02,15.20533139,0.0001406,53.2175,31.3546,68.2798,174.8744,-0.035195,-0.00726358,0.0,0 STARLINK-3858,1 52553U 22051W   22188.25002315 -.00726358  00000-0 -35195-1 0  9996,2 52553  53.2175  31.3546 0001406  68.2798 174.8744 15.20533139  9004,6882.368,94.704,505.201,503.266,0.0
52553.0,STARLINK-3858,PAYLOAD,2022-07-07 14:00:01,15.20021264,0.0001434,53.2176,29.8323,64.7593,203.6646,-0.035496,-0.00721974,0.0,0 STARLINK-3858,1 52553U 22051W   22188.58334491 -.00721974  00000-0 -35496-1 0  9998,2 52553  53.2176  29.8323 0001434  64.7593 203.6646 15.20021264  1303,6883.913000000001,94.736,506.766,504.791,0.0
52553.0,STARLINK-3858,PAYLOAD,2022-07-07 20:43:30,15.20882629,0.0002068,53.2162,28.5417,43.2146,316.9014,-0.010848,-0.00235425,0.0,0 STARLINK-3858,1 52553U 22051W   22188.86354648 -.00235425  00000-0 -10848-1 0  9990,2 52553  53.2162  28.5417 0002068  43.2146 316.9014 15.20882629  9099,6881.314,94.682,504.602,501.756,0.0
52553.0,STARLINK-3858,PAYLOAD,2022-07-08 06:00:02,15.19003225,0.0001317,53.2175,26.7928,66.57300000000001,250.7404,-0.036818,-0.00726588,0.0,0 STARLINK-3858,1 52553U 22051W   22189.25002315 -.00726588  00000-0 -36818-1 0  9995,2 52553  53.2175  26.7928 0001317  66.5730 250.7404 15.19003225  9153,6886.989000000001,94.799,509.761,507.947,0.0
52553.0,STARLINK-3858,PAYLOAD,2022-07-08 07:46:39,15.20169097,0.0001169,53.2162,26.4442,58.493,301.6182,-0.011168,-0.00237274,0.0,0 STARLINK-3858,1 52553U 22051W   22189.32407308 -.00237274  00000-0 -11168-1 0  9994,2 52553  53.2162  26.4442 0001169  58.4930 301.6182 15.20169097  9166,6883.467,94.726,506.137,504.527,0.0
52553.0,STARLINK-3858,PAYLOAD,2022-07-08 14:00:01,15.18491041,0.0001356,53.2177,25.2743,62.5051,278.2397,-0.037092,-0.00721545,0.0,0 STARLINK-3858,1 52553U 22051W   22189.58334491 -.00721545  00000-0 -37092-1 0  9997,2 52553  53.2177  25.2743 0001356  62.5051 278.2397 15.18491041  9207,6888.5369999999975,94.831,511.336,509.468,0.0
52553.0,STARLINK-3858,PAYLOAD,2022-07-08 22:00:01,15.17981955,0.0001447,53.2176,23.7591,55.1048,308.5833,-0.037759,-0.00723623,0.0,0 STARLINK-3858,1 52553U 22051W   22189.91668981 -.00723623  00000-0 -37759-1 0  9997,2 52553  53.2176  23.7591 0001447  55.1048 308.5833 15.17981955  1318,6890.0769999999975,94.863,512.939,510.945,0.0
52553.0,STARLINK-3858,PAYLOAD,2022-07-09 14:00:01,15.16961001,0.0001394,53.2177,20.7271,59.7574,347.7931,-0.038779,-0.00721726,0.0,0 STARLINK-3858,1 52553U 22051W   22190.58334491 -.00721726  00000-0 -38779-1 0  9993,2 52553  53.2177  20.7271 0001394  59.7574 347.7931 15.16961001  1308,6893.169,94.927,515.994,514.073,0.0
52553.0,STARLINK-3858,PAYLOAD,2022-07-09 16:00:00,15.1683388,0.0001519,53.2177,20.3491,58.8897,83.9788,-0.038993,-0.00722983,0.0,0 STARLINK-3858,1 52553U 22051W   22190.66667824 -.00722983  00000-0 -38993-1 0  9995,2 52553  53.2177  20.3491 0001519  58.8897  83.9788 15.16833880  9361,6893.554,94.935,516.466,514.372,0.0
52553.0,STARLINK-3858,PAYLOAD,2022-07-09 20:00:01,15.16579209,0.0001395,53.2175,19.5933,63.6217,269.7674,-0.03929,-0.00723153,0.0,0 STARLINK-3858,1 52553U 22051W   22190.83334491 -.00723153  00000-0 -39290-1 0  9996,2 52553  53.2175  19.5933 0001395  63.6217 269.7674 15.16579209  1308,6894.325,94.951,517.1519999999998,515.229,0.0
52553.0,STARLINK-3858,PAYLOAD,2022-07-10 14:00:01,15.15430932,0.00015,53.2176,16.1903,58.5933,50.24800000000001,-0.040517,-0.00721741,0.0,0 STARLINK-3858,1 52553U 22051W   22191.58334491 -.00721741  00000-0 -40517-1 0  9994,2 52553  53.2176  16.1903 0001500  58.5933  50.2480 15.15430932  1301,6897.808000000001,95.022,520.707,518.638,0.0
52553.0,STARLINK-3858,PAYLOAD,2022-07-10 22:00:00,15.14919737,0.0001499,53.2176,14.6822,60.4675,67.5779,-0.041003,-0.00719966,0.0,0 STARLINK-3858,1 52553U 22051W   22191.91667824 -.00719966  00000-0 -41003-1 0  9997,2 52553  53.2176  14.6822 0001499  60.4675  67.5779 15.14919737  9557,6899.359,95.055,522.258,520.19,0.0
52553.0,STARLINK-3858,PAYLOAD,2022-07-11 14:00:01,15.13900633,0.0001567,53.2177,11.6644,58.6228,105.9939,-0.042282,-0.00721188,0.0,0 STARLINK-3858,1 52553U 22051W   22192.58334491 -.00721188  00000-0 -42282-1 0  9991,2 52553  53.2177  11.6644 0001567  58.6228 105.9939 15.13900633  1300,6902.455,95.119,525.4019999999998,523.239,0.0
52553.0,STARLINK-3858,PAYLOAD,2022-07-11 22:00:00,15.13388281,0.0001573,53.2176,10.1597,58.3678,123.6151,-0.042634,-0.00717043,0.0,0 STARLINK-3858,1 52553U 22051W   22192.91667824 -.00717043  00000-0 -42634-1 0  9993,2 52553  53.2176  10.1597 0001573  58.3678 123.6151 15.13388281  9707,6904.013000000001,95.151,526.964,524.7919999999998,0.0
52553.0,STARLINK-3858,PAYLOAD,2022-07-12 14:00:01,15.12370427,0.0001573,53.2176,7.1492,59.6111,155.266,-0.044104,-0.00720573,0.0,0 STARLINK-3858,1 52553U 22051W   22193.58334491 -.00720573  00000-0 -44104-1 0  9994,2 52553  53.2176   7.1492 0001573  59.6111 155.2660 15.12370427  1309,6907.11,95.215,530.062,527.889,0.0
52553.0,STARLINK-3858,PAYLOAD,2022-07-12 22:00:00,15.11857892,0.0001531999999999,53.2175,5.6479,60.7992,169.6058,-0.044425,-0.0071581,0.0,0 STARLINK-3858,1 52553U 22051W   22193.91667824 -.00715810  00000-0 -44425-1 0  9994,2 52553  53.2175   5.6479 0001532  60.7992 169.6058 15.11857892  1306,6908.670999999999,95.247,531.595,529.4780000000002,0.0
52553.0,STARLINK-3858,PAYLOAD,2022-07-13 14:00:01,15.10840474,0.000154,53.2175,2.6446,59.096,200.5263,-0.046016,-0.00720367,0.0,0 STARLINK-3858,1 52553U 22051W   22194.58334491 -.00720367  00000-0 -46016-1 0  9990,2 52553  53.2175   2.6446 0001540  59.0960 200.5263 15.10840474  1302,6911.772,95.311,534.702,532.573,0.0
52553.0,STARLINK-3858,PAYLOAD,2022-07-13 22:00:00,15.10328385,0.0001373,53.2173,1.1467,73.6969,199.6147,-0.046386,-0.00716186,0.0,0 STARLINK-3858,1 52553U 22051W   22194.91667824 -.00716186  00000-0 -46386-1 0  9990,2 52553  53.2173   1.1467 0001373  73.6969 199.6147 15.10328385 10011,6913.335,95.344,536.149,534.251,0.0
52553.0,STARLINK-3858,PAYLOAD,2022-07-14 14:00:01,15.09227368,0.0001526,53.2175,358.1499,62.5155,236.349,-0.027467,-0.00417198,0.0,0 STARLINK-3858,1 52553U 22051W   22195.58334491 -.00417198  00000-0 -27467-1 0  9995,2 52553  53.2175 358.1499 0001526  62.5155 236.3490 15.09227368  1306,6916.696999999999,95.413,539.617,537.506,0.0
52553.0,STARLINK-3858,PAYLOAD,2022-07-14 22:00:00,15.08844448,0.0001392,53.2173,356.6545,75.1772,235.5846,-0.00074395,-0.0001211,0.0,0 STARLINK-3858,1 52553U 22051W   22195.91667824 -.00012110  00000-0 -74395-3 0  9990,2 52553  53.2173 356.6545 0001392  75.1772 235.5846 15.08844448 10168,6917.8669999999975,95.437,540.695,538.769,0.0
52553.0,STARLINK-3858,PAYLOAD,2022-07-15 14:00:01,15.08887052,0.0001332,53.2155,353.6516,55.3102,278.6259,-0.0017719,-0.00028413,0.0,0 STARLINK-3858,1 52553U 22051W   22196.58334491 -.00028413  00000-0 -17719-2 0  9994,2 52553  53.2155 353.6516 0001332  55.3102 278.6259 15.08887052 10269,6917.736999999999,95.435,540.523,538.68,0.0
52553.0,STARLINK-3858,PAYLOAD,2022-07-15 22:00:00,15.08861583,0.0001565999999999,53.2153,352.1561,51.4533,294.1232,-0.0047023,-0.00074397,0.0,0 STARLINK-3858,1 52553U 22051W   22196.91667824 -.00074397  00000-0 -47023-2 0  9993,2 52553  53.2153 352.1561 0001566  51.4533 294.1232 15.08861583  1305,6917.814,95.436,540.763,538.596,0.0
52553.0,STARLINK-3858,PAYLOAD,2022-07-16 06:00:00,15.08760928,0.0001517,53.2155,350.658,62.50100000000001,294.6836,0.0052113,0.00083452,0.0,0 STARLINK-3858,1 52553U 22051W   22197.25001157  .00083452  00000-0  52113-2 0  9998,2 52553  53.2155 350.6580 0001517  62.5010 294.6836 15.08760928 10362,6918.121999999999,95.443,541.0369999999998,538.938,0.0
52553.0,STARLINK-3858,PAYLOAD,2022-07-16 14:00:01,15.08839959,0.0001528,53.2157,349.1626,59.6681,309.0402,-0.00078943,-0.0001283,0.0,0 STARLINK-3858,1 52553U 22051W   22197.58334491 -.00012830  00000-0 -78943-3 0  9998,2 52553  53.2157 349.1626 0001528  59.6681 309.0402 15.08839959  1306,6917.880999999999,95.438,540.803,538.688,0.0
52553.0,STARLINK-3858,PAYLOAD,2022-07-16 22:00:00,15.08830648,0.0001599,53.2153,347.667,52.8715,327.4344,0.0025857,0.00041093,0.0,0 STARLINK-3858,1 52553U 22051W   22197.91667824  .00041093  00000-0  25857-2 0  9990,2 52553  53.2153 347.6670 0001599  52.8715 327.4344 15.08830648 10467,6917.909000000002,95.438,540.88,538.668,0.0
52553.0,STARLINK-3858,PAYLOAD,2022-07-17 14:00:01,15.08855393,0.0001593,53.2154,344.6737,60.5894,342.9312,-0.0013036,-0.00020984,0.0,0 STARLINK-3858,1 52553U 22051W   22198.58334491 -.00020984  00000-0 -13036-2 0  9999,2 52553  53.2154 344.6737 0001593  60.5894 342.9312 15.08855393 10569,6917.833000000001,95.437,540.8,538.596,0.0
52553.0,STARLINK-3858,PAYLOAD,2022-07-17 22:00:00,15.08851877,0.0001664,53.2159,343.1819,52.237,2.8845,-0.0024696,-0.0003939,0.0,0 STARLINK-3858,1 52553U 22051W   22198.91667824 -.00039390  00000-0 -24696-2 0  9990,2 52553  53.2159 343.1819 0001664  52.2370   2.8845 15.08851877  1303,6917.844,95.437,540.86,538.558,0.0
52553.0,STARLINK-3858,PAYLOAD,2022-07-18 14:00:01,15.08874203,0.0001625,53.2149,340.1847,61.3432,16.9724,-0.0048049999999999,-0.00076025,0.0,0 STARLINK-3858,1 52553U 22051W   22199.58334491 -.00076025  00000-0 -48050-2 0  9991,2 52553  53.2149 340.1847 0001625  61.3432  16.9724 15.08874203  1307,6917.776,95.435,540.765,538.5169999999998,0.0
